{
  "norad_id": 52856,
  "name": "STARLINK-4201",
  "history": [
    {
      "epoch": "2026-03-28T20:09:50.904000Z",
      "apogee_km": 540.6711596092837,
      "perigee_km": 538.8199342397265,
      "latitude_deg": 4.4794949608863716e-05,
      "longitude_deg": 169.48058559980976,
      "height_km": 540.6467045934412,
      "semi_major_axis_km": 6917.882546924505,
      "eccentricity": 0.0001338,
      "inclination_deg": 53.2167,
      "raan_deg": 298.1975,
      "arg_perigee_deg": 90.3406,
      "mean_anomaly_deg": 269.774,
      "mean_motion_rev_day": 15.08839294
    },
    {
      "epoch": "2026-03-28T23:20:37.118112Z",
      "apogee_km": 540.6678323344468,
      "perigee_km": 538.8138410742104,
      "latitude_deg": 2.620057772969347e-05,
      "longitude_deg": 121.06283533633204,
      "height_km": 540.6331608236728,
      "semi_major_axis_km": 6917.877836704328,
      "eccentricity": 0.000134,
      "inclination_deg": 53.2168,
      "raan_deg": 297.6029,
      "arg_perigee_deg": 89.7934,
      "mean_anomaly_deg": 270.3212,
      "mean_motion_rev_day": 15.08840835
    },
    {
      "epoch": "2026-03-30T13:29:52.568736Z",
      "apogee_km": 540.6692943037133,
      "perigee_km": 538.8422788187818,
      "latitude_deg": 4.517771188017937e-05,
      "longitude_deg": -99.95526809305134,
      "height_km": 540.6560081140877,
      "semi_major_axis_km": 6917.892786561248,
      "eccentricity": 0.00013205,
      "inclination_deg": 53.2168,
      "raan_deg": 290.4661,
      "arg_perigee_deg": 90.2843,
      "mean_anomaly_deg": 269.8301,
      "mean_motion_rev_day": 15.08835944
    },
    {
      "epoch": "2026-03-30T19:51:25.021152Z",
      "apogee_km": 540.6979872085512,
      "perigee_km": 538.8011027179236,
      "latitude_deg": 3.84203552374291e-05,
      "longitude_deg": 163.2085533399706,
      "height_km": 540.7369433646458,
      "semi_major_axis_km": 6917.886544963238,
      "eccentricity": 0.0001371,
      "inclination_deg": 53.2174,
      "raan_deg": 289.2763,
      "arg_perigee_deg": 95.5487,
      "mean_anomaly_deg": 264.5662,
      "mean_motion_rev_day": 15.08837986
    },
    {
      "epoch": "2026-03-31T13:20:39.316704Z",
      "apogee_km": 540.6717090680349,
      "perigee_km": 538.8132899192915,
      "latitude_deg": 3.0260164819578424e-05,
      "longitude_deg": -103.08999461604904,
      "height_km": 540.7084677867156,
      "semi_major_axis_km": 6917.879499493663,
      "eccentricity": 0.00013432,
      "inclination_deg": 53.2171,
      "raan_deg": 286.0055,
      "arg_perigee_deg": 94.3371,
      "mean_anomaly_deg": 265.7775,
      "mean_motion_rev_day": 15.08840291
    },
    {
      "epoch": "2026-04-01T19:32:59.198784Z",
      "apogee_km": 540.6609736939045,
      "perigee_km": 538.8471026636935,
      "latitude_deg": -2.546694911573959e-05,
      "longitude_deg": 156.93702683455172,
      "height_km": 540.6307177863325,
      "semi_major_axis_km": 6917.891038178799,
      "eccentricity": 0.0001311,
      "inclination_deg": 53.217,
      "raan_deg": 280.3559,
      "arg_perigee_deg": 88.7961,
      "mean_anomaly_deg": 271.3181,
      "mean_motion_rev_day": 15.08836516
    },
    {
      "epoch": "2026-04-02T19:23:46.466880Z",
      "apogee_km": 540.6446529058239,
      "perigee_km": 538.8626042798987,
      "latitude_deg": 2.9177855945169525e-05,
      "longitude_deg": 153.8003784079286,
      "height_km": 540.676305321467,
      "semi_major_axis_km": 6917.8906285928615,
      "eccentricity": 0.0001288,
      "inclination_deg": 53.2155,
      "raan_deg": 275.8955,
      "arg_perigee_deg": 91.7415,
      "mean_anomaly_deg": 268.3725,
      "mean_motion_rev_day": 15.0883665
    },
    {
      "epoch": "2026-04-02T22:34:32.617920Z",
      "apogee_km": 540.6949745660722,
      "perigee_km": 538.7975375466012,
      "latitude_deg": 6.099872411191068e-05,
      "longitude_deg": 105.38212929612634,
      "height_km": 540.6352956405763,
      "semi_major_axis_km": 6917.883256056336,
      "eccentricity": 0.00013714,
      "inclination_deg": 53.2148,
      "raan_deg": 275.3001,
      "arg_perigee_deg": 89.6156,
      "mean_anomaly_deg": 270.4994,
      "mean_motion_rev_day": 15.08839062
    },
    {
      "epoch": "2026-04-03T20:49:56.446752Z",
      "apogee_km": 540.6906167291509,
      "perigee_km": 538.7937342592313,
      "latitude_deg": -1.7356979636091686e-05,
      "longitude_deg": 126.45553734027844,
      "height_km": 540.6464478981662,
      "semi_major_axis_km": 6917.879175494191,
      "eccentricity": 0.0001371,
      "inclination_deg": 53.2161,
      "raan_deg": 271.1369,
      "arg_perigee_deg": 90.5266,
      "mean_anomaly_deg": 269.5883,
      "mean_motion_rev_day": 15.08840397
    },
    {
      "epoch": "2026-04-04T06:22:15.468384Z",
      "apogee_km": 540.6944893156042,
      "perigee_km": 538.8042460444995,
      "latitude_deg": 2.684456149073345e-05,
      "longitude_deg": -18.799723940963794,
      "height_km": 540.6510338046156,
      "semi_major_axis_km": 6917.886367680052,
      "eccentricity": 0.00013662,
      "inclination_deg": 53.2161,
      "raan_deg": 269.3526,
      "arg_perigee_deg": 90.3705,
      "mean_anomaly_deg": 269.7444,
      "mean_motion_rev_day": 15.08838044
    },
    {
      "epoch": "2026-04-05T14:09:58.478688Z",
      "apogee_km": 540.6511324006588,
      "perigee_km": 538.8599516636759,
      "latitude_deg": 5.2608769278200625e-05,
      "longitude_deg": -142.9821019164103,
      "height_km": 540.688607002714,
      "semi_major_axis_km": 6917.8925420321675,
      "eccentricity": 0.00012946,
      "inclination_deg": 53.2164,
      "raan_deg": 263.4052,
      "arg_perigee_deg": 92.3923,
      "mean_anomaly_deg": 267.7218,
      "mean_motion_rev_day": 15.08836024
    },
    {
      "epoch": "2026-04-05T20:31:30.891360Z",
      "apogee_km": 540.6324359939217,
      "perigee_km": 538.8614577035296,
      "latitude_deg": 1.788078457046617e-05,
      "longitude_deg": 120.18246399218009,
      "height_km": 540.6586145409208,
      "semi_major_axis_km": 6917.883946848726,
      "eccentricity": 0.000128,
      "inclination_deg": 53.2166,
      "raan_deg": 262.216,
      "arg_perigee_deg": 91.0314,
      "mean_anomaly_deg": 269.0825,
      "mean_motion_rev_day": 15.08838836
    },
    {
      "epoch": "2026-04-05T23:42:17.051040Z",
      "apogee_km": 540.622244081379,
      "perigee_km": 538.861367210191,
      "latitude_deg": 3.3521502375943114e-06,
      "longitude_deg": 71.76484398708475,
      "height_km": 540.6453715552932,
      "semi_major_axis_km": 6917.878805645785,
      "eccentricity": 0.00012727,
      "inclination_deg": 53.2166,
      "raan_deg": 261.6213,
      "arg_perigee_deg": 90.5092,
      "mean_anomaly_deg": 269.6046,
      "mean_motion_rev_day": 15.08840518
    },
    {
      "epoch": "2026-04-07T13:51:34.091424Z",
      "apogee_km": 540.7268282594268,
      "perigee_km": 538.8483350185288,
      "latitude_deg": -4.529260866351639e-05,
      "longitude_deg": -149.2600572018774,
      "height_km": 540.7236174441587,
      "semi_major_axis_km": 6917.9245816389775,
      "eccentricity": 0.00013577,
      "inclination_deg": 53.2166,
      "raan_deg": 254.4844,
      "arg_perigee_deg": 92.4658,
      "mean_anomaly_deg": 267.6489,
      "mean_motion_rev_day": 15.08825542
    },
    {
      "epoch": "2026-04-07T20:13:06.740832Z",
      "apogee_km": 540.7229197285742,
      "perigee_km": 538.8412457380718,
      "latitude_deg": 1.04093866841577e-05,
      "longitude_deg": 113.90328654258514,
      "height_km": 540.7107895995263,
      "semi_major_axis_km": 6917.919082733323,
      "eccentricity": 0.000136,
      "inclination_deg": 53.2165,
      "raan_deg": 253.2949,
      "arg_perigee_deg": 92.0163,
      "mean_anomaly_deg": 268.0985,
      "mean_motion_rev_day": 15.08827341
    },
    {
      "epoch": "2026-04-08T15:17:44.417760Z",
      "apogee_km": 540.7437330450957,
      "perigee_km": 538.776698150813,
      "latitude_deg": -8.784984819123555e-06,
      "longitude_deg": -176.6054873508941,
      "height_km": 540.7617615872342,
      "semi_major_axis_km": 6917.8972155979545,
      "eccentricity": 0.00014217,
      "inclination_deg": 53.2164,
      "raan_deg": 249.7266,
      "arg_perigee_deg": 96.1885,
      "mean_anomaly_deg": 263.9269,
      "mean_motion_rev_day": 15.08834495
    },
    {
      "epoch": "2026-04-09T19:54:40.845024Z",
      "apogee_km": 540.6656946757557,
      "perigee_km": 538.7522184841664,
      "latitude_deg": 3.4786341066698215e-05,
      "longitude_deg": 107.6317239320388,
      "height_km": 540.6233939808461,
      "semi_major_axis_km": 6917.845956579961,
      "eccentricity": 0.0001383,
      "inclination_deg": 53.2157,
      "raan_deg": 244.3741,
      "arg_perigee_deg": 91.1346,
      "mean_anomaly_deg": 268.9805,
      "mean_motion_rev_day": 15.08851265
    },
    {
      "epoch": "2026-04-10T10:13:08.419296Z",
      "apogee_km": 540.6257858141325,
      "perigee_km": 538.7358379879206,
      "latitude_deg": 2.916527606355408e-05,
      "longitude_deg": -110.24716925591048,
      "height_km": 540.5876261899091,
      "semi_major_axis_km": 6917.817811901026,
      "eccentricity": 0.0001366,
      "inclination_deg": 53.2154,
      "raan_deg": 241.6977,
      "arg_perigee_deg": 90.6867,
      "mean_anomaly_deg": 269.4282,
      "mean_motion_rev_day": 15.08860473
    },
    {
      "epoch": "2026-04-11T18:00:50.378112Z",
      "apogee_km": 540.6516696503977,
      "perigee_km": 538.7935325615408,
      "latitude_deg": 5.153782145682591e-06,
      "longitude_deg": 125.57450817030389,
      "height_km": 540.6465403478279,
      "semi_major_axis_km": 6917.859601105969,
      "eccentricity": 0.0001343,
      "inclination_deg": 53.2151,
      "raan_deg": 235.75,
      "arg_perigee_deg": 91.7549,
      "mean_anomaly_deg": 268.3597,
      "mean_motion_rev_day": 15.08846801
    }
  ]
}